OBJECT_NAME,OBJECT_ID,EPOCH,MEAN_MOTION,ECCENTRICITY,INCLINATION,RA_OF_ASC_NODE,ARG_OF_PERICENTER,MEAN_ANOMALY,EPHEMERIS_TYPE,CLASSIFICATION_TYPE,NORAD_CAT_ID,ELEMENT_SET_NO,REV_AT_EPOCH,BSTAR,MEAN_MOTION_DOT,MEAN_MOTION_DDOT
ONEWEB-0278,2021-060AF,2026-06-27T03:29:26.277792,13.16593267,.0002314,87.9095,226.7968,96.4291,263.7103,0,U,48996,999,24100,.19142E-3,.86E-6,0
ONEWEB-0279,2021-060AG,2026-06-27T03:40:50.558016,13.16595251,.0001829,87.9092,226.7934,99.6652,260.4686,0,U,48997,999,24093,.13526E-4,.18E-6,0
ONEWEB-0280,2021-060AH,2026-06-27T04:02:30.319008,13.16594143,.000231,87.9090,226.7945,103.6645,256.4743,0,U,48998,999,24087,.29308E-4,.24E-6,0
ONEWEB-0281,2021-060AJ,2026-06-27T04:10:28.593120,13.16595424,.0002137,87.9090,226.7886,95.5152,264.6223,0,U,48999,999,24094,-.14601E-3,-.43E-6,0
ONEWEB-0282,2021-060AK,2026-06-27T04:53:48.104736,13.16592871,.0002073,87.9088,226.7910,99.6612,260.4753,0,U,49000,999,24092,.89304E-4,.47E-6,0
ONEWEB-0283,2021-060AL,2026-06-27T04:37:50.421216,13.16594331,.0001947,87.9087,226.7926,98.9629,261.1722,0,U,49001,999,24093,.71802E-4,.4E-6,0
ONEWEB-0284,2021-060AM,2026-06-27T04:28:43.612032,13.16594368,.0002364,87.9091,226.7873,100.4775,259.6622,0,U,49002,999,24091,-.98713E-4,-.25E-6,0
ONEWEB-0285,2021-075A,2026-06-27T04:47:44.554272,13.12432670,.0001805,87.8950,348.6709,95.8604,264.2730,0,U,49075,999,23652,-.55969E-2,-.2E-4,0
ONEWEB-0286,2021-075B,2026-06-27T04:21:54.305856,13.12441024,.0001905,87.8941,348.6898,86.2069,273.9277,0,U,49076,999,23587,-.59697E-3,-.202E-5,0
ONEWEB-0287,2021-075C,2026-06-27T00:55:13.369152,13.17649766,.0002179,87.9132,3.9057,81.6462,278.4916,0,U,49077,999,23492,.18364E-5,.14E-6,0
ONEWEB-0288,2021-075D,2026-06-27T00:08:23.440704,13.12443311,.0002049,87.8951,348.7024,90.9883,269.1480,0,U,49078,999,23647,.10499E-2,.39E-5,0
ONEWEB-0289,2021-075E,2026-06-27T01:50:55.303872,13.17648109,.0002082,87.9136,3.9156,100.0727,260.0639,0,U,49079,999,23550,-.27242E-4,.2E-7,0
ONEWEB-0290,2021-075F,2026-06-27T01:12:15.185664,13.17649243,.0002086,87.9141,3.8928,103.5763,256.5600,0,U,49080,999,23491,-.41373E-4,-.3E-7,0
ONEWEB-0291,2021-075G,2026-06-27T00:50:22.672032,13.17649794,.0002249,87.9133,3.9027,90.3216,269.8173,0,U,49081,999,23490,-.19129E-4,.5E-7,0
ONEWEB-0293,2021-075H,2026-06-27T01:26:49.278912,13.17649404,.0001978,87.9132,3.9009,93.3715,266.7643,0,U,49082,999,23493,-.74498E-4,-.16E-6,0
ONEWEB-0294,2021-075J,2026-06-27T03:57:43.205760,13.12441064,.0002021,87.8953,348.6746,101.4395,258.6960,0,U,49083,999,23588,.75804E-3,.285E-5,0
ONEWEB-0295,2021-075K,2026-06-27T01:25:36.789312,13.17648931,.000217,87.9132,3.9050,86.7605,273.3774,0,U,49084,999,23489,-.1423E-3,-.42E-6,0
ONEWEB-0296,2021-075L,2026-06-26T23:48:53.188128,13.12442883,.0002188,87.8954,348.7165,91.3877,268.7502,0,U,49085,999,23586,.65426E-3,.248E-5,0
ONEWEB-0297,2021-075M,2026-06-27T04:12:20.844000,13.12440438,.0001917,87.8942,348.6896,90.4002,269.7346,0,U,49086,999,23649,-.16656E-3,-.47E-6,0
ONEWEB-0298,2021-075N,2026-06-27T01:31:53.679936,13.17648289,.0001842,87.9134,3.9023,85.8416,274.2926,0,U,49087,999,23492,-.22286E-4,.4E-7,0
ONEWEB-0299,2021-075P,2026-06-27T01:34:06.240000,13.17650723,.0002001,87.9143,3.8832,85.9425,274.1935,0,U,49088,999,23490,-.14536E-3,-.44E-6,0
ONEWEB-0300,2021-075Q,2026-06-27T04:01:22.261728,13.12440580,.000165,87.8953,348.6716,81.4164,278.7152,0,U,49089,999,23651,.56822E-3,.217E-5,0
ONEWEB-0301,2021-075R,2026-06-26T23:58:38.275104,13.12442083,.0001548,87.8949,348.7032,85.1946,274.9359,0,U,49090,999,23585,.10996E-2,.408E-5,0
ONEWEB-0302,2021-075S,2026-06-26T23:39:06.666912,13.12444760,.0002066,87.8953,348.7181,98.1413,261.9950,0,U,49091,999,23583,.18922E-3,.81E-6,0
ONEWEB-0304,2021-075T,2026-06-27T00:57:39.397248,13.17649614,.0002012,87.9133,3.9097,87.3785,272.7577,0,U,49092,999,23487,.24688E-4,.22E-6,0
ONEWEB-0305,2021-075U,2026-06-27T00:47:56.428800,13.17649771,.0002187,87.9140,3.8962,83.1880,276.9500,0,U,49093,999,23490,-.60755E-5,.11E-6,0
ONEWEB-0308,2021-075V,2026-06-27T04:58:41.409408,13.12442924,.0001803,87.8952,348.6660,93.0690,267.0645,0,U,49094,999,23587,-.12487E-2,-.436E-5,0
ONEWEB-0309,2021-075W,2026-06-27T00:52:48.275040,13.17649408,.0002188,87.9130,3.9030,100.7204,259.4174,0,U,49095,999,23487,.11539E-4,.17E-6,0
ONEWEB-0310,2021-075X,2026-06-26T23:51:19.293120,13.12442799,.0001821,87.8941,348.7291,93.1888,266.9449,0,U,49096,999,23647,.10146E-2,.378E-5,0
ONEWEB-0311,2021-075Y,2026-06-27T01:02:30.854688,13.17650369,.0002109,87.9133,3.9015,78.6919,281.4450,0,U,49097,999,23492,-.15402E-4,.7E-7,0
ONEWEB-0312,2021-075Z,2026-06-27T01:24:22.791168,13.17647951,.0002168,87.9132,3.9090,88.7336,271.4044,0,U,49098,999,23490,.39819E-5,.14E-6,0
