ONEWEB-0278             
1 48996U 21060AF  26178.14544303  .00000086  00000+0  19142-3 0  9996
2 48996  87.9095 226.7968 0002314  96.4291 263.7103 13.16593267241009
ONEWEB-0279             
1 48997U 21060AG  26178.15336294  .00000018  00000+0  13526-4 0  9992
2 48997  87.9092 226.7934 0001829  99.6652 260.4686 13.16595251240932
ONEWEB-0280             
1 48998U 21060AH  26178.16840647  .00000024  00000+0  29308-4 0  9998
2 48998  87.9090 226.7945 0002310 103.6645 256.4743 13.16594143240878
ONEWEB-0281             
1 48999U 21060AJ  26178.17394205 -.00000043  00000+0 -14601-3 0  9996
2 48999  87.9090 226.7886 0002137  95.5152 264.6223 13.16595424240947
ONEWEB-0282             
1 49000U 21060AK  26178.20402899  .00000047  00000+0  89304-4 0  9998
2 49000  87.9088 226.7910 0002073  99.6612 260.4753 13.16592871240924
ONEWEB-0283             
1 49001U 21060AL  26178.19294469  .00000040  00000+0  71802-4 0  9996
2 49001  87.9087 226.7926 0001947  98.9629 261.1722 13.16594331240938
ONEWEB-0284             
1 49002U 21060AM  26178.18661588 -.00000025  00000+0 -98713-4 0  9991
2 49002  87.9091 226.7873 0002364 100.4775 259.6622 13.16594368240919
ONEWEB-0285             
1 49075U 21075A   26178.19982123 -.00002000  00000+0 -55969-2 0  9998
2 49075  87.8950 348.6709 0001805  95.8604 264.2730 13.12432670236528
ONEWEB-0286             
1 49076U 21075B   26178.18187854 -.00000202  00000+0 -59697-3 0  9991
2 49076  87.8941 348.6898 0001905  86.2069 273.9277 13.12441024235871
ONEWEB-0287             
1 49077U 21075C   26178.03834918  .00000014  00000+0  18364-5 0  9993
2 49077  87.9132   3.9057 0002179  81.6462 278.4916 13.17649766234926
ONEWEB-0288             
1 49078U 21075D   26178.00582686  .00000390  00000+0  10499-2 0  9998
2 49078  87.8951 348.7024 0002049  90.9883 269.1480 13.12443311236473
ONEWEB-0289             
1 49079U 21075E   26178.07702898  .00000002  00000+0 -27242-4 0  9992
2 49079  87.9136   3.9156 0002082 100.0727 260.0639 13.17648109235509
ONEWEB-0290             
1 49080U 21075F   26178.05017576 -.00000003  00000+0 -41373-4 0  9997
2 49080  87.9141   3.8928 0002086 103.5763 256.5600 13.17649243234917
ONEWEB-0291             
1 49081U 21075G   26178.03498463  .00000005  00000+0 -19129-4 0  9999
2 49081  87.9133   3.9027 0002249  90.3216 269.8173 13.17649794234909
ONEWEB-0293             
1 49082U 21075H   26178.06029258 -.00000016  00000+0 -74498-4 0  9998
2 49082  87.9132   3.9009 0001978  93.3715 266.7643 13.17649404234933
ONEWEB-0294             
1 49083U 21075J   26178.16508340  .00000285  00000+0  75804-3 0  9991
2 49083  87.8953 348.6746 0002021 101.4395 258.6960 13.12441064235880
ONEWEB-0295             
1 49084U 21075K   26178.05945358 -.00000042  00000+0 -14230-3 0  9993
2 49084  87.9132   3.9050 0002170  86.7605 273.3774 13.17648931234898
ONEWEB-0296             
1 49085U 21075L   26177.99228227  .00000248  00000+0  65426-3 0  9994
2 49085  87.8954 348.7165 0002188  91.3877 268.7502 13.12442883235867
ONEWEB-0297             
1 49086U 21075M   26178.17524125 -.00000047  00000+0 -16656-3 0  9992
2 49086  87.8942 348.6896 0001917  90.4002 269.7346 13.12440438236495
ONEWEB-0298             
1 49087U 21075N   26178.06381574  .00000004  00000+0 -22286-4 0  9999
2 49087  87.9134   3.9023 0001842  85.8416 274.2926 13.17648289234927
ONEWEB-0299             
1 49088U 21075P   26178.06535000 -.00000044  00000+0 -14536-3 0  9998
2 49088  87.9143   3.8832 0002001  85.9425 274.1935 13.17650723234907
ONEWEB-0300             
1 49089U 21075Q   26178.16761877  .00000217  00000+0  56822-3 0  9997
2 49089  87.8953 348.6716 0001650  81.4164 278.7152 13.12440580236510
ONEWEB-0301             
1 49090U 21075R   26177.99905411  .00000408  00000+0  10996-2 0  9996
2 49090  87.8949 348.7032 0001548  85.1946 274.9359 13.12442083235857
ONEWEB-0302             
1 49091U 21075S   26177.98549383  .00000081  00000+0  18922-3 0  9993
2 49091  87.8953 348.7181 0002066  98.1413 261.9950 13.12444760235832
ONEWEB-0304             
1 49092U 21075T   26178.04003932  .00000022  00000+0  24688-4 0  9999
2 49092  87.9133   3.9097 0002012  87.3785 272.7577 13.17649614234871
ONEWEB-0305             
1 49093U 21075U   26178.03329200  .00000011  00000+0 -60755-5 0  9993
2 49093  87.9140   3.8962 0002187  83.1880 276.9500 13.17649771234903
ONEWEB-0308             
1 49094U 21075V   26178.20742372 -.00000436  00000+0 -12487-2 0  9990
2 49094  87.8952 348.6660 0001803  93.0690 267.0645 13.12442924235876
ONEWEB-0309             
1 49095U 21075W   26178.03666985  .00000017  00000+0  11539-4 0  9999
2 49095  87.9130   3.9030 0002188 100.7204 259.4174 13.17649408234874
ONEWEB-0310             
1 49096U 21075X   26177.99397330  .00000378  00000+0  10146-2 0  9990
2 49096  87.8941 348.7291 0001821  93.1888 266.9449 13.12442799236474
ONEWEB-0311             
1 49097U 21075Y   26178.04341267  .00000007  00000+0 -15402-4 0  9998
2 49097  87.9133   3.9015 0002109  78.6919 281.4450 13.17650369234927
ONEWEB-0312             
1 49098U 21075Z   26178.05859712  .00000014  00000+0  39819-5 0  9995
2 49098  87.9132   3.9090 0002168  88.7336 271.4044 13.17647951234909
